{
    "links": {
        "self": "http://www.neowsapp.com/rest/v1/neo/3299470?api_key=iIulBulltgU6a56xZRHN4H3l9WmuAYTsLGpBGhQ2"
    },
    "id": "3299470",
    "neo_reference_id": "3299470",
    "name": "(2005 VZ3)",
    "designation": "2005 VZ3",
    "nasa_jpl_url": "http://ssd.jpl.nasa.gov/sbdb.cgi?sstr=3299470",
    "absolute_magnitude_h": 20.7,
    "estimated_diameter": {
        "kilometers": {
            "estimated_diameter_min": 0.1925550782,
            "estimated_diameter_max": 0.4305662442
        },
        "meters": {
            "estimated_diameter_min": 192.5550781879,
            "estimated_diameter_max": 430.566244241
        },
        "miles": {
            "estimated_diameter_min": 0.1196481415,
            "estimated_diameter_max": 0.2675413778
        },
        "feet": {
            "estimated_diameter_min": 631.7424027221,
            "estimated_diameter_max": 1412.6189567557
        }
    },
    "is_potentially_hazardous_asteroid": false,
    "close_approach_data": [
        {
            "close_approach_date": "1951-11-21",
            "close_approach_date_full": "1951-Nov-21 01:42",
            "epoch_date_close_approach": -571616280000,
            "relative_velocity": {
                "kilometers_per_second": "16.3886772872",
                "kilometers_per_hour": "58999.2382340881",
                "miles_per_hour": "36659.8322238421"
            },
            "miss_distance": {
                "astronomical": "0.2378094462",
                "lunar": "92.5078745718",
                "kilometers": "35575786.617399594",
                "miles": "22105768.7459346372"
            },
            "orbiting_body": "Earth"
        },
        {
            "close_approach_date": "1970-11-22",
            "close_approach_date_full": "1970-Nov-22 02:54",
            "epoch_date_close_approach": 28090440000,
            "relative_velocity": {
                "kilometers_per_second": "14.6709688917",
                "kilometers_per_hour": "52815.488010039",
                "miles_per_hour": "32817.4903137934"
            },
            "miss_distance": {
                "astronomical": "0.4562877366",
                "lunar": "177.4959295374",
                "kilometers": "68259673.502481042",
                "miles": "42414594.3235686996"
            },
            "orbiting_body": "Earth"
        },
        {
            "close_approach_date": "1986-11-15",
            "close_approach_date_full": "1986-Nov-15 12:41",
            "epoch_date_close_approach": 532442460000,
            "relative_velocity": {
                "kilometers_per_second": "19.8573211425",
                "kilometers_per_hour": "71486.3561130763",
                "miles_per_hour": "44418.8416637057"
            },
            "miss_distance": {
                "astronomical": "0.3757802997",
                "lunar": "146.1785365833",
                "kilometers": "56215932.423081639",
                "miles": "34930960.6375350582"
            },
            "orbiting_body": "Earth"
        },
        {
            "close_approach_date": "2005-11-22",
            "close_approach_date_full": "2005-Nov-22 09:57",
            "epoch_date_close_approach": 1132653420000,
            "relative_velocity": {
                "kilometers_per_second": "15.046614495",
                "kilometers_per_hour": "54167.8121820342",
                "miles_per_hour": "33657.7719638868"
            },
            "miss_distance": {
                "astronomical": "0.2794530419",
                "lunar": "108.7072332991",
                "kilometers": "41805579.833260753",
                "miles": "25976782.7489662714"
            },
            "orbiting_body": "Earth"
        },
        {
            "close_approach_date": "2040-11-19",
            "close_approach_date_full": "2040-Nov-19 03:30",
            "epoch_date_close_approach": 2236908600000,
            "relative_velocity": {
                "kilometers_per_second": "17.0079484912",
                "kilometers_per_hour": "61228.6145682293",
                "miles_per_hour": "38045.0799799089"
            },
            "miss_distance": {
                "astronomical": "0.2512915747",
                "lunar": "97.7524225583",
                "kilometers": "37592684.324065889",
                "miles": "23359010.8672477082"
            },
            "orbiting_body": "Earth"
        }
    ],
    "orbital_data": {
        "orbit_id": "11",
        "orbit_determination_date": "2017-04-06 09:09:55",
        "first_observation_date": "2005-11-06",
        "last_observation_date": "2006-01-04",
        "data_arc_in_days": 59,
        "observations_used": 29,
        "orbit_uncertainty": "6",
        "minimum_orbit_intersection": ".233378",
        "jupiter_tisserand_invariant": "3.406",
        "epoch_osculation": "2459000.5",
        "eccentricity": ".4785226594378666",
        "semi_major_axis": "2.162739856810859",
        "inclination": "27.93072855232933",
        "ascending_node_longitude": "48.77185183602792",
        "orbital_period": "1161.729058775672",
        "perihelion_distance": "1.127819828857456",
        "perihelion_argument": "46.38713280415722",
        "aphelion_distance": "3.197659884764262",
        "perihelion_time": "2459544.990528996108",
        "mean_anomaly": "191.2716816731971",
        "mean_motion": ".3098829260407744",
        "equinox": "J2000",
        "orbit_class": {
            "orbit_class_type": "AMO",
            "orbit_class_description": "Near-Earth asteroid orbits similar to that of 1221 Amor",
            "orbit_class_range": "1.017 AU < q (perihelion) < 1.3 AU"
        }
    },
    "is_sentry_object": false
}